[
   {
      "name": "STARLINK-1028",
      "line1": "1 44733U 19074W   21092.75612294  .00001125  00000-0  94395-4 0  9995",
      "line2": "2 44733  53.0583 355.7983 0001876  72.6602 287.4592 15.06397449 77157",
      "bstar": 9.4395,
      "inc": 53.0583,
      "raan": 355.7983,
      "ecc": 0.0001876,
      "argp": 72.6602,
      "nu": 287.4592,
      "mmo": 15.06397449,
      "a": 6925.35638
   },
   {
      "name": "STARLINK-1029",
      "line1": "1 44734U 19074X   21092.85187857 -.00001656  00000-0 -94495-4 0  9991",
      "line2": "2 44734  53.0002 275.3898 0001861  81.9569 278.1630 15.05576748 78280",
      "bstar": -9.4495,
      "inc": 53.0002,
      "raan": 275.3898,
      "ecc": 0.0001861,
      "argp": 81.9569,
      "nu": 278.163,
      "mmo": 15.05576748,
      "a": 6927.87286
   },
   {
      "name": "STARLINK-1030",
      "line1": "1 44735U 19074Y   21092.83168039  .00001103  00000-0  92928-4 0  9995",
      "line2": "2 44735  53.0588  15.4645 0001567  79.3528 280.7637 15.06399565 76883",
      "bstar": 9.2928,
      "inc": 53.0588,
      "raan": 15.4645,
      "ecc": 0.0001567,
      "argp": 79.3528,
      "nu": 280.7637,
      "mmo": 15.06399565,
      "a": 6925.34989
   },
   {
      "name": "STARLINK-1031",
      "line1": "1 44736U 19074Z   21092.84642304  .00001127  00000-0  94527-4 0  9992",
      "line2": "2 44736  53.0595  15.3991 0001802  67.5192 292.5988 15.06403567 76892",
      "bstar": 9.4527,
      "inc": 53.0595,
      "raan": 15.3991,
      "ecc": 0.0001802,
      "argp": 67.5192,
      "nu": 292.5988,
      "mmo": 15.06403567,
      "a": 6925.33763
   },
   {
      "name": "STARLINK-1032",
      "line1": "1 44737U 19074AA  21092.79114078  .00000827  00000-0  74450-4 0  9998",
      "line2": "2 44737  53.0578  15.6432 0001594  77.6017 282.5150 15.06395791 76881",
      "bstar": 7.445,
      "inc": 53.0578,
      "raan": 15.6432,
      "ecc": 0.0001594,
      "argp": 77.6017,
      "nu": 282.515,
      "mmo": 15.06395791,
      "a": 6925.36146
   },
   {
      "name": "STARLINK-1033",
      "line1": "1 44738U 19074AB  21092.51100984  .00001682  00000-0  13179-3 0  9990",
      "line2": "2 44738  53.0569  16.9209 0001291  71.3927 288.7203 15.06396565 76835",
      "bstar": 13.179,
      "inc": 53.0569,
      "raan": 16.9209,
      "ecc": 0.0001291,
      "argp": 71.3927,
      "nu": 288.7203,
      "mmo": 15.06396565,
      "a": 6925.35909
   },
   {
      "name": "STARLINK-1052",
      "line1": "1 44739U 19074AC  21092.85888370  .00003591  00000-0  25951-3 0  9992",
      "line2": "2 44739  53.0006  14.9402 0001703  70.6104 289.5068 15.06453360 76882",
      "bstar": 25.951,
      "inc": 53.0006,
      "raan": 14.9402,
      "ecc": 0.0001703,
      "argp": 70.6104,
      "nu": 289.5068,
      "mmo": 15.0645336,
      "a": 6925.18502
   },
   {
      "name": "STARLINK-1035",
      "line1": "1 44740U 19074AD  21092.78745278 -.00000867  00000-0 -39302-4 0  9996",
      "line2": "2 44740  53.0562  15.6788 0001854  76.4480 283.6716 15.06397582 76882",
      "bstar": -3.9302,
      "inc": 53.0562,
      "raan": 15.6788,
      "ecc": 0.0001854,
      "argp": 76.448,
      "nu": 283.6716,
      "mmo": 15.06397582,
      "a": 6925.35597
   },
   {
      "name": "STARLINK-1036",
      "line1": "1 44741U 19074AE  21092.79850846  .00000456  00000-0  49517-4 0  9997",
      "line2": "2 44741  53.0575  15.6053 0001592  82.0369 278.0801 15.06393557 76881",
      "bstar": 4.9517,
      "inc": 53.0575,
      "raan": 15.6053,
      "ecc": 0.0001592,
      "argp": 82.0369,
      "nu": 278.0801,
      "mmo": 15.06393557,
      "a": 6925.36831
   },
   {
      "name": "STARLINK-1037",
      "line1": "1 44742U 19074AF  21092.85065294  .00004056  00000-0  28271-3 0  9993",
      "line2": "2 44742  52.9995  13.0698 0001122 111.3094 248.8014 15.07494613 76914",
      "bstar": 28.271,
      "inc": 52.9995,
      "raan": 13.0698,
      "ecc": 0.0001122,
      "argp": 111.3094,
      "nu": 248.8014,
      "mmo": 15.07494613,
      "a": 6921.99576
   },
   {
      "name": "STARLINK-1038",
      "line1": "1 44743U 19074AG  21092.84827493 -.00000620  00000-0 -22753-4 0  9995",
      "line2": "2 44743  53.0569  35.4062 0001225  68.3530 291.7589 15.06391380 76704",
      "bstar": -2.2753,
      "inc": 53.0569,
      "raan": 35.4062,
      "ecc": 0.0001225,
      "argp": 68.353,
      "nu": 291.7589,
      "mmo": 15.0639138,
      "a": 6925.37498
   },
   {
      "name": "STARLINK-1039",
      "line1": "1 44744U 19074AH  21092.85932891 -.00000896  00000-0 -41238-4 0  9990",
      "line2": "2 44744  53.0572  35.3341 0001523  81.1712 278.9450 15.06400675 76616",
      "bstar": -4.1238,
      "inc": 53.0572,
      "raan": 35.3341,
      "ecc": 0.0001523,
      "argp": 81.1712,
      "nu": 278.945,
      "mmo": 15.06400675,
      "a": 6925.34649
   },
   {
      "name": "STARLINK-1041",
      "line1": "1 44746U 19074AK  21092.84458482 -.00000974  00000-0 -46481-4 0  9992",
      "line2": "2 44746  53.0573  35.4225 0001528  72.4368 287.6788 15.06394409 76614",
      "bstar": -4.6481,
      "inc": 53.0573,
      "raan": 35.4225,
      "ecc": 0.0001528,
      "argp": 72.4368,
      "nu": 287.6788,
      "mmo": 15.06394409,
      "a": 6925.36569
   },
   {
      "name": "STARLINK-1042",
      "line1": "1 44747U 19074AL  21092.87409904  .00000823  00000-0  74140-4 0  9995",
      "line2": "2 44747  53.0583  35.2778 0001372  70.9179 289.1958 15.06391191 76629",
      "bstar": 7.414,
      "inc": 53.0583,
      "raan": 35.2778,
      "ecc": 0.0001372,
      "argp": 70.9179,
      "nu": 289.1958,
      "mmo": 15.06391191,
      "a": 6925.37556
   },
   {
      "name": "STARLINK-1043",
      "line1": "1 44748U 19074AM  21092.57182573 -.00000993  00000-0 -47798-4 0  9992",
      "line2": "2 44748  53.0592  36.6334 0001111  56.9936 303.1159 15.06393422 76572",
      "bstar": -4.7798,
      "inc": 53.0592,
      "raan": 36.6334,
      "ecc": 0.0001111,
      "argp": 56.9936,
      "nu": 303.1159,
      "mmo": 15.06393422,
      "a": 6925.36872
   },
   {
      "name": "STARLINK-1044",
      "line1": "1 44749U 19074AN  21092.80219089  .00000592  00000-0  58624-4 0  9995",
      "line2": "2 44749  53.0579  15.5990 0001840  81.4501 278.6697 15.06396040 76888",
      "bstar": 5.8624,
      "inc": 53.0579,
      "raan": 15.599,
      "ecc": 0.000184,
      "argp": 81.4501,
      "nu": 278.6697,
      "mmo": 15.0639604,
      "a": 6925.3607
   },
   {
      "name": "STARLINK-1045",
      "line1": "1 44750U 19074AP  21092.89047623  .00233785  36123-4  31493-3 0  9994",
      "line2": "2 44750  52.9805 274.9076 0009019 274.5953  85.4048 16.05932501 78275",
      "bstar": 31.493,
      "inc": 52.9805,
      "raan": 274.9076,
      "ecc": 0.0009019,
      "argp": 274.5953,
      "nu": 85.4048,
      "mmo": 16.05932501,
      "a": 6636.16206
   },
   {
      "name": "STARLINK-1046",
      "line1": "1 44751U 19074AQ  21092.32118590  .00000935  00000-0  81649-4 0  9994",
      "line2": "2 44751  53.0584  37.7626 0001286  70.0326 290.0802 15.06390467 76537",
      "bstar": 8.1649,
      "inc": 53.0584,
      "raan": 37.7626,
      "ecc": 0.0001286,
      "argp": 70.0326,
      "nu": 290.0802,
      "mmo": 15.06390467,
      "a": 6925.37778
   },
   {
      "name": "STARLINK-1047",
      "line1": "1 44752U 19074AR  21092.80588203  .00000379  00000-0  44341-4 0  9990",
      "line2": "2 44752  53.0590  15.5810 0001625  75.8234 284.2936 15.06399128 76886",
      "bstar": 4.4341,
      "inc": 53.059,
      "raan": 15.581,
      "ecc": 0.0001625,
      "argp": 75.8234,
      "nu": 284.2936,
      "mmo": 15.06399128,
      "a": 6925.35123
   },
   {
      "name": "STARLINK-1048",
      "line1": "1 44753U 19074AS  21092.87776149 -.00000195  00000-0  58294-5 0  9996",
      "line2": "2 44753  53.0580 355.2535 0001854  87.0437 273.0764 15.06395624 77173",
      "bstar": 0.58294,
      "inc": 53.058,
      "raan": 355.2535,
      "ecc": 0.0001854,
      "argp": 87.0437,
      "nu": 273.0764,
      "mmo": 15.06395624,
      "a": 6925.36197
   },
   {
      "name": "STARLINK-1049",
      "line1": "1 44754U 19074AT  21092.88143990  .00001137  00000-0  95200-4 0  9993",
      "line2": "2 44754  53.0582 355.2375 0001951  80.3395 279.7814 15.06398092 77176",
      "bstar": 9.52,
      "inc": 53.0582,
      "raan": 355.2375,
      "ecc": 0.0001951,
      "argp": 80.3395,
      "nu": 279.7814,
      "mmo": 15.06398092,
      "a": 6925.35441
   },
   {
      "name": "STARLINK-1050",
      "line1": "1 44755U 19074AU  21092.86301444  .00001139  00000-0  95328-4 0  9995",
      "line2": "2 44755  53.0577  35.3384 0002163  53.9880 306.1310 15.06404270 77169",
      "bstar": 9.5328,
      "inc": 53.0577,
      "raan": 35.3384,
      "ecc": 0.0002163,
      "argp": 53.988,
      "nu": 306.131,
      "mmo": 15.0640427,
      "a": 6925.33547
   },
   {
      "name": "STARLINK-1051",
      "line1": "1 44756U 19074AV  21092.88513087 -.00000501  00000-0 -14722-4 0  9999",
      "line2": "2 44756  53.0581 355.2209 0001832  81.3986 278.7211 15.06398519 77172",
      "bstar": -1.4722,
      "inc": 53.0581,
      "raan": 355.2209,
      "ecc": 0.0001832,
      "argp": 81.3986,
      "nu": 278.7211,
      "mmo": 15.06398519,
      "a": 6925.3531
   },
   {
      "name": "STARLINK-1034",
      "line1": "1 44757U 19074AW  21092.88329104 -.00000700  00000-0 -28115-4 0  9997",
      "line2": "2 44757  53.0551  15.2498 0001424  69.7930 290.3212 15.06396280 76891",
      "bstar": -2.8115,
      "inc": 53.0551,
      "raan": 15.2498,
      "ecc": 0.0001424,
      "argp": 69.793,
      "nu": 290.3212,
      "mmo": 15.0639628,
      "a": 6925.35996
   }
]